[{"OBJECT_NAME":"ONEWEB-0442","OBJECT_ID":"2022-012Q","EPOCH":"2026-04-27T06:02:05.541792","MEAN_MOTION":13.17648361,"ECCENTRICITY":0.0001609,"INCLINATION":87.9186,"RA_OF_ASC_NODE":15.9991,"ARG_OF_PERICENTER":99.1327,"MEAN_ANOMALY":260.9986,"EPHEMERIS_TYPE":0,"CLASSIFICATION_TYPE":"U","NORAD_CAT_ID":51636,"ELEMENT_SET_NO":999,"REV_AT_EPOCH":20696,"BSTAR":0.00012609,"MEAN_MOTION_DOT":6.2e-07,"MEAN_MOTION_DDOT":0.0},{"OBJECT_NAME":"ONEWEB-0443","OBJECT_ID":"2022-012R","EPOCH":"2026-04-27T06:30:02.225376","MEAN_MOTION":13.17648738,"ECCENTRICITY":0.0002141,"INCLINATION":87.9183,"RA_OF_ASC_NODE":15.9968,"ARG_OF_PERICENTER":85.6375,"MEAN_ANOMALY":274.5002,"EPHEMERIS_TYPE":0,"CLASSIFICATION_TYPE":"U","NORAD_CAT_ID":51637,"ELEMENT_SET_NO":999,"REV_AT_EPOCH":20701,"BSTAR":1.5678e-05,"MEAN_MOTION_DOT":1.9e-07,"MEAN_MOTION_DDOT":0.0},{"OBJECT_NAME":"ONEWEB-0444","OBJECT_ID":"2022-012S","EPOCH":"2026-04-27T05:48:22.349376","MEAN_MOTION":13.10375132,"ECCENTRICITY":0.000205,"INCLINATION":87.885,"RA_OF_ASC_NODE":46.4048,"ARG_OF_PERICENTER":82.032,"MEAN_ANOMALY":278.104,"EPHEMERIS_TYPE":0,"CLASSIFICATION_TYPE":"U","NORAD_CAT_ID":51638,"ELEMENT_SET_NO":999,"REV_AT_EPOCH":20266,"BSTAR":0.0014860000000000001,"MEAN_MOTION_DOT":5.31e-06,"MEAN_MOTION_DDOT":0.0},{"OBJECT_NAME":"ONEWEB-0445","OBJECT_ID":"2022-012T","EPOCH":"2026-04-27T06:19:25.920480","MEAN_MOTION":13.1037221,"ECCENTRICITY":0.0001695,"INCLINATION":87.8855,"RA_OF_ASC_NODE":46.3841,"ARG_OF_PERICENTER":74.1301,"MEAN_ANOMALY":286.0013,"EPHEMERIS_TYPE":0,"CLASSIFICATION_TYPE":"U","NORAD_CAT_ID":51639,"ELEMENT_SET_NO":999,"REV_AT_EPOCH":20267,"BSTAR":0.0013536000000000002,"MEAN_MOTION_DOT":4.85e-06,"MEAN_MOTION_DDOT":0.0},{"OBJECT_NAME":"ONEWEB-0446","OBJECT_ID":"2022-012U","EPOCH":"2026-04-27T05:45:57.758112","MEAN_MOTION":13.10375256,"ECCENTRICITY":0.0001759,"INCLINATION":87.8852,"RA_OF_ASC_NODE":46.4213,"ARG_OF_PERICENTER":76.9242,"MEAN_ANOMALY":283.2081,"EPHEMERIS_TYPE":0,"CLASSIFICATION_TYPE":"U","NORAD_CAT_ID":51640,"ELEMENT_SET_NO":999,"REV_AT_EPOCH":20265,"BSTAR":0.0012132,"MEAN_MOTION_DOT":4.36e-06,"MEAN_MOTION_DDOT":0.0},{"OBJECT_NAME":"ONEWEB-0448","OBJECT_ID":"2022-012V","EPOCH":"2026-04-27T05:53:06.877536","MEAN_MOTION":13.10378894,"ECCENTRICITY":0.0001957,"INCLINATION":87.8849,"RA_OF_ASC_NODE":46.4178,"ARG_OF_PERICENTER":79.4227,"MEAN_ANOMALY":280.7121,"EPHEMERIS_TYPE":0,"CLASSIFICATION_TYPE":"U","NORAD_CAT_ID":51641,"ELEMENT_SET_NO":999,"REV_AT_EPOCH":20262,"BSTAR":0.0015759,"MEAN_MOTION_DOT":5.63e-06,"MEAN_MOTION_DDOT":0.0},{"OBJECT_NAME":"ONEWEB-0449","OBJECT_ID":"2022-012W","EPOCH":"2026-04-27T06:00:18.491328","MEAN_MOTION":13.1037228,"ECCENTRICITY":0.0001909,"INCLINATION":87.8858,"RA_OF_ASC_NODE":46.4002,"ARG_OF_PERICENTER":92.5461,"MEAN_ANOMALY":267.5885,"EPHEMERIS_TYPE":0,"CLASSIFICATION_TYPE":"U","NORAD_CAT_ID":51642,"ELEMENT_SET_NO":999,"REV_AT_EPOCH":20263,"BSTAR":0.0018012,"MEAN_MOTION_DOT":6.41e-06,"MEAN_MOTION_DDOT":0.0},{"OBJECT_NAME":"ONEWEB-0451","OBJECT_ID":"2022-012X","EPOCH":"2026-04-27T06:08:10.427136","MEAN_MOTION":13.17650582,"ECCENTRICITY":0.0001796,"INCLINATION":87.9193,"RA_OF_ASC_NODE":15.9585,"ARG_OF_PERICENTER":87.924,"MEAN_ANOMALY":272.2097,"EPHEMERIS_TYPE":0,"CLASSIFICATION_TYPE":"U","NORAD_CAT_ID":51643,"ELEMENT_SET_NO":999,"REV_AT_EPOCH":20695,"BSTAR":0.00015479000000000003,"MEAN_MOTION_DOT":7.3e-07,"MEAN_MOTION_DDOT":0.0},{"OBJECT_NAME":"ONEWEB-0452","OBJECT_ID":"2022-012Y","EPOCH":"2026-04-27T06:05:43.224000","MEAN_MOTION":13.17650576,"ECCENTRICITY":0.0002007,"INCLINATION":87.9184,"RA_OF_ASC_NODE":16.0005,"ARG_OF_PERICENTER":87.608,"MEAN_ANOMALY":272.5281,"EPHEMERIS_TYPE":0,"CLASSIFICATION_TYPE":"U","NORAD_CAT_ID":51644,"ELEMENT_SET_NO":999,"REV_AT_EPOCH":20696,"BSTAR":0.00013685,"MEAN_MOTION_DOT":6.6e-07,"MEAN_MOTION_DDOT":0.0},{"OBJECT_NAME":"ONEWEB-0456","OBJECT_ID":"2022-012AA","EPOCH":"2026-04-27T06:14:38.990400","MEAN_MOTION":13.10370775,"ECCENTRICITY":0.0002032,"INCLINATION":87.8861,"RA_OF_ASC_NODE":46.3812,"ARG_OF_PERICENTER":76.945,"MEAN_ANOMALY":283.1904,"EPHEMERIS_TYPE":0,"CLASSIFICATION_TYPE":"U","NORAD_CAT_ID":51646,"ELEMENT_SET_NO":999,"REV_AT_EPOCH":20267,"BSTAR":0.0015970000000000001,"MEAN_MOTION_DOT":5.7e-06,"MEAN_MOTION_DDOT":0.0},{"OBJECT_NAME":"ONEWEB-0457","OBJECT_ID":"2022-012AB","EPOCH":"2026-04-27T05:41:10.692384","MEAN_MOTION":13.1037581,"ECCENTRICITY":0.0001476,"INCLINATION":87.8851,"RA_OF_ASC_NODE":46.4097,"ARG_OF_PERICENTER":82.2261,"MEAN_ANOMALY":277.9034,"EPHEMERIS_TYPE":0,"CLASSIFICATION_TYPE":"U","NORAD_CAT_ID":51647,"ELEMENT_SET_NO":999,"REV_AT_EPOCH":20267,"BSTAR":0.00090835,"MEAN_MOTION_DOT":3.3e-06,"MEAN_MOTION_DDOT":0.0},{"OBJECT_NAME":"ONEWEB-0458","OBJECT_ID":"2022-012AC","EPOCH":"2026-04-27T06:12:15.792768","MEAN_MOTION":13.10371008,"ECCENTRICITY":0.0001977,"INCLINATION":87.8855,"RA_OF_ASC_NODE":46.3891,"ARG_OF_PERICENTER":83.7128,"MEAN_ANOMALY":276.4224,"EPHEMERIS_TYPE":0,"CLASSIFICATION_TYPE":"U","NORAD_CAT_ID":51648,"ELEMENT_SET_NO":999,"REV_AT_EPOCH":20263,"BSTAR":0.0018762000000000002,"MEAN_MOTION_DOT":6.68e-06,"MEAN_MOTION_DDOT":0.0},{"OBJECT_NAME":"ONEWEB-0461","OBJECT_ID":"2022-012AD","EPOCH":"2026-04-27T06:37:19.583040","MEAN_MOTION":13.17648188,"ECCENTRICITY":0.0001692,"INCLINATION":87.9193,"RA_OF_ASC_NODE":15.9689,"ARG_OF_PERICENTER":80.0529,"MEAN_ANOMALY":280.0794,"EPHEMERIS_TYPE":0,"CLASSIFICATION_TYPE":"U","NORAD_CAT_ID":51649,"ELEMENT_SET_NO":999,"REV_AT_EPOCH":20718,"BSTAR":4.846500000000001e-06,"MEAN_MOTION_DOT":1.5e-07,"MEAN_MOTION_DDOT":0.0},{"OBJECT_NAME":"ONEWEB-0463","OBJECT_ID":"2022-012AE","EPOCH":"2026-04-27T06:10:36.275520","MEAN_MOTION":13.1764934,"ECCENTRICITY":0.0001647,"INCLINATION":87.9183,"RA_OF_ASC_NODE":16.0003,"ARG_OF_PERICENTER":79.4369,"MEAN_ANOMALY":280.6948,"EPHEMERIS_TYPE":0,"CLASSIFICATION_TYPE":"U","NORAD_CAT_ID":51650,"ELEMENT_SET_NO":999,"REV_AT_EPOCH":20696,"BSTAR":7.740700000000001e-05,"MEAN_MOTION_DOT":4.3e-07,"MEAN_MOTION_DDOT":0.0},{"OBJECT_NAME":"ONEWEB-0464","OBJECT_ID":"2022-012AF","EPOCH":"2026-04-27T06:07:29.094240","MEAN_MOTION":13.10370813,"ECCENTRICITY":0.0002185,"INCLINATION":87.885,"RA_OF_ASC_NODE":46.4156,"ARG_OF_PERICENTER":78.6106,"MEAN_ANOMALY":281.5266,"EPHEMERIS_TYPE":0,"CLASSIFICATION_TYPE":"U","NORAD_CAT_ID":51651,"ELEMENT_SET_NO":999,"REV_AT_EPOCH":20265,"BSTAR":0.0016444,"MEAN_MOTION_DOT":5.87e-06,"MEAN_MOTION_DDOT":0.0},{"OBJECT_NAME":"ONEWEB-0468","OBJECT_ID":"2022-012AG","EPOCH":"2026-04-27T06:17:06.316224","MEAN_MOTION":13.10384232,"ECCENTRICITY":0.0002136,"INCLINATION":87.8843,"RA_OF_ASC_NODE":46.4085,"ARG_OF_PERICENTER":74.4832,"MEAN_ANOMALY":285.6531,"EPHEMERIS_TYPE":0,"CLASSIFICATION_TYPE":"U","NORAD_CAT_ID":51652,"ELEMENT_SET_NO":999,"REV_AT_EPOCH":20263,"BSTAR":0.0056264999999999996,"MEAN_MOTION_DOT":1.978e-05,"MEAN_MOTION_DDOT":0.0}]