ONEWEB-0442             
1 51636U 22012Q   26117.25145303  .00000062  00000+0  12609-3 0  9996
2 51636  87.9186  15.9991 0001609  99.1327 260.9986 13.17648361206966
ONEWEB-0443             
1 51637U 22012R   26117.27085909  .00000019  00000+0  15678-4 0  9996
2 51637  87.9183  15.9968 0002141  85.6375 274.5002 13.17648738207018
ONEWEB-0444             
1 51638U 22012S   26117.24192534  .00000531  00000+0  14860-2 0  9996
2 51638  87.8850  46.4048 0002050  82.0320 278.1040 13.10375132202663
ONEWEB-0445             
1 51639U 22012T   26117.26349445  .00000485  00000+0  13536-2 0  9991
2 51639  87.8855  46.3841 0001695  74.1301 286.0013 13.10372210202677
ONEWEB-0446             
1 51640U 22012U   26117.24025183  .00000436  00000+0  12132-2 0  9998
2 51640  87.8852  46.4213 0001759  76.9242 283.2081 13.10375256202650
ONEWEB-0448             
1 51641U 22012V   26117.24521849  .00000563  00000+0  15759-2 0  9998
2 51641  87.8849  46.4178 0001957  79.4227 280.7121 13.10378894202623
ONEWEB-0449             
1 51642U 22012W   26117.25021402  .00000641  00000+0  18012-2 0  9992
2 51642  87.8858  46.4002 0001909  92.5461 267.5885 13.10372280202637
ONEWEB-0451             
1 51643U 22012X   26117.25567624  .00000073  00000+0  15479-3 0  9998
2 51643  87.9193  15.9585 0001796  87.9240 272.2097 13.17650582206953
ONEWEB-0452             
1 51644U 22012Y   26117.25397250  .00000066  00000+0  13685-3 0  9994
2 51644  87.9184  16.0005 0002007  87.6080 272.5281 13.17650576206960
ONEWEB-0456             
1 51646U 22012AA  26117.26017350  .00000570  00000+0  15970-2 0  9995
2 51646  87.8861  46.3812 0002032  76.9450 283.1904 13.10370775202672
ONEWEB-0457             
1 51647U 22012AB  26117.23692931  .00000330  00000+0  90835-3 0  9995
2 51647  87.8851  46.4097 0001476  82.2261 277.9034 13.10375810202679
ONEWEB-0458             
1 51648U 22012AC  26117.25851612  .00000668  00000+0  18762-2 0  9993
2 51648  87.8855  46.3891 0001977  83.7128 276.4224 13.10371008202635
ONEWEB-0461             
1 51649U 22012AD  26117.27592110  .00000015  00000+0  48465-5 0  9993
2 51649  87.9193  15.9689 0001692  80.0529 280.0794 13.17648188207189
ONEWEB-0463             
1 51650U 22012AE  26117.25736430  .00000043  00000+0  77407-4 0  9996
2 51650  87.9183  16.0003 0001647  79.4369 280.6948 13.17649340206969
ONEWEB-0464             
1 51651U 22012AF  26117.25519785  .00000587  00000+0  16444-2 0  9994
2 51651  87.8850  46.4156 0002185  78.6106 281.5266 13.10370813202658
ONEWEB-0468             
1 51652U 22012AG  26117.26187866  .00001978  00000+0  56265-2 0  9997
2 51652  87.8843  46.4085 0002136  74.4832 285.6531 13.10384232202636
